CCSDS_OMM_VERS = 2.0
CREATION_DATE  = 
ORIGINATOR     = 

OBJECT_NAME    = ATLAS CENTAUR R/B
OBJECT_ID      = 1972-065B
CENTER_NAME    = EARTH
REF_FRAME      = TEME
TIME_SYSTEM    = UTC
MEAN_ELEMENT_THEORY = SGP/SGP4

EPOCH          = 2025-10-26T11:40:30.498240
MEAN_MOTION    = 14.77220453
ECCENTRICITY   = .003434
INCLINATION    = 35.0033
RA_OF_ASC_NODE = 11.9575
ARG_OF_PERICENTER = 320.3502
MEAN_ANOMALY   = 39.4689

EPHEMERIS_TYPE = 0
CLASSIFICATION_TYPE = U
NORAD_CAT_ID   = 6155
ELEMENT_SET_NO = 999
REV_AT_EPOCH   = 82140
BSTAR          = .28181E-3
MEAN_MOTION_DOT = .2026E-4
MEAN_MOTION_DDOT = 0

CCSDS_OMM_VERS = 2.0
CREATION_DATE  = 
ORIGINATOR     = 

OBJECT_NAME    = SL-8 R/B
OBJECT_ID      = 1975-112B
CENTER_NAME    = EARTH
REF_FRAME      = TEME
TIME_SYSTEM    = UTC
MEAN_ELEMENT_THEORY = SGP/SGP4

EPOCH          = 2025-10-26T09:19:28.856352
MEAN_MOTION    = 14.38099468
ECCENTRICITY   = .0015033
INCLINATION    = 74.0594
RA_OF_ASC_NODE = 265.9487
ARG_OF_PERICENTER = 26.0677
MEAN_ANOMALY   = 334.1231

EPHEMERIS_TYPE = 0
CLASSIFICATION_TYPE = U
NORAD_CAT_ID   = 8459
ELEMENT_SET_NO = 999
REV_AT_EPOCH   = 61256
BSTAR          = .14095E-3
MEAN_MOTION_DOT = .402E-5
MEAN_MOTION_DDOT = 0

CCSDS_OMM_VERS = 2.0
CREATION_DATE  = 
ORIGINATOR     = 

OBJECT_NAME    = SL-3 R/B
OBJECT_ID      = 1977-057B
CENTER_NAME    = EARTH
REF_FRAME      = TEME
TIME_SYSTEM    = UTC
MEAN_ELEMENT_THEORY = SGP/SGP4

EPOCH          = 2025-10-26T10:54:42.130656
MEAN_MOTION    = 15.41471001
ECCENTRICITY   = .0008796
INCLINATION    = 97.5682
RA_OF_ASC_NODE = 101.0022
ARG_OF_PERICENTER = 53.1063
MEAN_ANOMALY   = 307.0988

EPHEMERIS_TYPE = 0
CLASSIFICATION_TYPE = U
NORAD_CAT_ID   = 10114
ELEMENT_SET_NO = 999
REV_AT_EPOCH   = 64762
BSTAR          = .28844E-3
MEAN_MOTION_DOT = .12011E-3
MEAN_MOTION_DDOT = 0

CCSDS_OMM_VERS = 2.0
CREATION_DATE  = 
ORIGINATOR     = 

OBJECT_NAME    = SEASAT 1
OBJECT_ID      = 1978-064A
CENTER_NAME    = EARTH
REF_FRAME      = TEME
TIME_SYSTEM    = UTC
MEAN_ELEMENT_THEORY = SGP/SGP4

EPOCH          = 2025-10-26T12:03:18.775296
MEAN_MOTION    = 14.45982584
ECCENTRICITY   = .0002687
INCLINATION    = 108.0046
RA_OF_ASC_NODE = 203.9551
ARG_OF_PERICENTER = 263.9249
MEAN_ANOMALY   = 96.1591

EPHEMERIS_TYPE = 0
CLASSIFICATION_TYPE = U
NORAD_CAT_ID   = 10967
ELEMENT_SET_NO = 999
REV_AT_EPOCH   = 48711
BSTAR          = .1911E-3
MEAN_MOTION_DOT = .544E-5
MEAN_MOTION_DDOT = 0

CCSDS_OMM_VERS = 2.0
CREATION_DATE  = 
ORIGINATOR     = 

OBJECT_NAME    = SL-14 R/B
OBJECT_ID      = 1979-011B
CENTER_NAME    = EARTH
REF_FRAME      = TEME
TIME_SYSTEM    = UTC
MEAN_ELEMENT_THEORY = SGP/SGP4

EPOCH          = 2025-10-26T11:57:06.170112
MEAN_MOTION    = 14.91680746
ECCENTRICITY   = .001704
INCLINATION    = 82.5258
RA_OF_ASC_NODE = 223.8367
ARG_OF_PERICENTER = 141.0059
MEAN_ANOMALY   = 219.2393

EPHEMERIS_TYPE = 0
CLASSIFICATION_TYPE = U
NORAD_CAT_ID   = 11267
ELEMENT_SET_NO = 999
REV_AT_EPOCH   = 50877
BSTAR          = .98317E-4
MEAN_MOTION_DOT = .1016E-4
MEAN_MOTION_DDOT = 0

CCSDS_OMM_VERS = 2.0
CREATION_DATE  = 
ORIGINATOR     = 

OBJECT_NAME    = SL-8 R/B
OBJECT_ID      = 1979-089B
CENTER_NAME    = EARTH
REF_FRAME      = TEME
TIME_SYSTEM    = UTC
MEAN_ELEMENT_THEORY = SGP/SGP4

EPOCH          = 2025-10-26T09:23:38.960160
MEAN_MOTION    = 14.42235841
ECCENTRICITY   = .0015789
INCLINATION    = 74.0698
RA_OF_ASC_NODE = 339.6146
ARG_OF_PERICENTER = 190.8033
MEAN_ANOMALY   = 169.2787

EPHEMERIS_TYPE = 0
CLASSIFICATION_TYPE = U
NORAD_CAT_ID   = 11574
ELEMENT_SET_NO = 999
REV_AT_EPOCH   = 41674
BSTAR          = .12292E-3
MEAN_MOTION_DOT = .379E-5
MEAN_MOTION_DDOT = 0

CCSDS_OMM_VERS = 2.0
CREATION_DATE  = 
ORIGINATOR     = 

OBJECT_NAME    = SL-14 R/B
OBJECT_ID      = 1980-005B
CENTER_NAME    = EARTH
REF_FRAME      = TEME
TIME_SYSTEM    = UTC
MEAN_ELEMENT_THEORY = SGP/SGP4

EPOCH          = 2025-10-26T10:08:49.392960
MEAN_MOTION    = 14.90692703
ECCENTRICITY   = .0014416
INCLINATION    = 82.5134
RA_OF_ASC_NODE = 74.5639
ARG_OF_PERICENTER = 249.4526
MEAN_ANOMALY   = 110.5146

EPHEMERIS_TYPE = 0
CLASSIFICATION_TYPE = U
NORAD_CAT_ID   = 11672
ELEMENT_SET_NO = 999
REV_AT_EPOCH   = 45648
BSTAR          = .11256E-3
MEAN_MOTION_DOT = .113E-4
MEAN_MOTION_DDOT = 0

CCSDS_OMM_VERS = 2.0
CREATION_DATE  = 
ORIGINATOR     = 

OBJECT_NAME    = SL-8 R/B
OBJECT_ID      = 1981-003B
CENTER_NAME    = EARTH
REF_FRAME      = TEME
TIME_SYSTEM    = UTC
MEAN_ELEMENT_THEORY = SGP/SGP4

EPOCH          = 2025-10-26T10:09:01.266048
MEAN_MOTION    = 15.04498605
ECCENTRICITY   = .028544
INCLINATION    = 82.9333
RA_OF_ASC_NODE = 53.6638
ARG_OF_PERICENTER = 283.8584
MEAN_ANOMALY   = 73.1040

EPHEMERIS_TYPE = 0
CLASSIFICATION_TYPE = U
NORAD_CAT_ID   = 12139
ELEMENT_SET_NO = 999
REV_AT_EPOCH   = 29444
BSTAR          = .53375E-3
MEAN_MOTION_DOT = .19002E-3
MEAN_MOTION_DDOT = 0

CCSDS_OMM_VERS = 2.0
CREATION_DATE  = 
ORIGINATOR     = 

OBJECT_NAME    = SL-3 R/B
OBJECT_ID      = 1981-046B
CENTER_NAME    = EARTH
REF_FRAME      = TEME
TIME_SYSTEM    = UTC
MEAN_ELEMENT_THEORY = SGP/SGP4

EPOCH          = 2025-10-26T11:42:46.853856
MEAN_MOTION    = 15.38145244
ECCENTRICITY   = .0020807
INCLINATION    = 81.2315
RA_OF_ASC_NODE = 90.3950
ARG_OF_PERICENTER = 125.2796
MEAN_ANOMALY   = 235.0395

EPHEMERIS_TYPE = 0
CLASSIFICATION_TYPE = U
NORAD_CAT_ID   = 12465
ELEMENT_SET_NO = 999
REV_AT_EPOCH   = 41777
BSTAR          = .37804E-3
MEAN_MOTION_DOT = .14338E-3
MEAN_MOTION_DDOT = 0

CCSDS_OMM_VERS = 2.0
CREATION_DATE  = 
ORIGINATOR     = 

OBJECT_NAME    = METEOR PRIRODA
OBJECT_ID      = 1981-065A
CENTER_NAME    = EARTH
REF_FRAME      = TEME
TIME_SYSTEM    = UTC
MEAN_ELEMENT_THEORY = SGP/SGP4

EPOCH          = 2025-10-26T11:19:19.663968
MEAN_MOTION    = 15.95996609
ECCENTRICITY   = .0001086
INCLINATION    = 97.4609
RA_OF_ASC_NODE = 2.0877
ARG_OF_PERICENTER = 29.1998
MEAN_ANOMALY   = 330.9339

EPHEMERIS_TYPE = 0
CLASSIFICATION_TYPE = U
NORAD_CAT_ID   = 12585
ELEMENT_SET_NO = 999
REV_AT_EPOCH   = 42322
BSTAR          = .67373E-3
MEAN_MOTION_DOT = .272993E-2
MEAN_MOTION_DDOT = .31477E-4

CCSDS_OMM_VERS = 2.0
CREATION_DATE  = 
ORIGINATOR     = 

OBJECT_NAME    = SL-3 R/B
OBJECT_ID      = 1981-103B
CENTER_NAME    = EARTH
REF_FRAME      = TEME
TIME_SYSTEM    = UTC
MEAN_ELEMENT_THEORY = SGP/SGP4

EPOCH          = 2025-10-26T10:54:10.032192
MEAN_MOTION    = 15.19458026
ECCENTRICITY   = .0017878
INCLINATION    = 81.1625
RA_OF_ASC_NODE = 10.6958
ARG_OF_PERICENTER = 36.6749
MEAN_ANOMALY   = 323.5701

EPHEMERIS_TYPE = 0
CLASSIFICATION_TYPE = U
NORAD_CAT_ID   = 12904
ELEMENT_SET_NO = 999
REV_AT_EPOCH   = 95283
BSTAR          = .23315E-3
MEAN_MOTION_DOT = .4988E-4
MEAN_MOTION_DDOT = 0

CCSDS_OMM_VERS = 2.0
CREATION_DATE  = 
ORIGINATOR     = 

OBJECT_NAME    = SL-3 R/B
OBJECT_ID      = 1982-013B
CENTER_NAME    = EARTH
REF_FRAME      = TEME
TIME_SYSTEM    = UTC
MEAN_ELEMENT_THEORY = SGP/SGP4

EPOCH          = 2025-10-26T11:12:54.974016
MEAN_MOTION    = 15.20482176
ECCENTRICITY   = .0021473
INCLINATION    = 81.1737
RA_OF_ASC_NODE = 317.9270
ARG_OF_PERICENTER = 271.7089
MEAN_ANOMALY   = 88.1682

EPHEMERIS_TYPE = 0
CLASSIFICATION_TYPE = U
NORAD_CAT_ID   = 13068
ELEMENT_SET_NO = 999
REV_AT_EPOCH   = 38394
BSTAR          = .25568E-3
MEAN_MOTION_DOT = .5642E-4
MEAN_MOTION_DDOT = 0

