ATLAS CENTAUR R/B       
1 06155U 72065B   25299.48646410  .00002026  00000+0  28181-3 0  9999
2 06155  35.0033  11.9575 0034340 320.3502  39.4689 14.77220453821409
SL-8 R/B                
1 08459U 75112B   25299.38852843  .00000402  00000+0  14095-3 0  9997
2 08459  74.0594 265.9487 0015033  26.0677 334.1231 14.38099468612567
SL-3 R/B                
1 10114U 77057B   25299.45465429  .00012011  00000+0  28844-3 0  9992
2 10114  97.5682 101.0022 0008796  53.1063 307.0988 15.41471001647624
SEASAT 1                
1 10967U 78064A   25299.50230064  .00000544  00000+0  19110-3 0  9992
2 10967 108.0046 203.9551 0002687 263.9249  96.1591 14.45982584487119
SL-14 R/B               
1 11267U 79011B   25299.49798808  .00001016  00000+0  98317-4 0  9994
2 11267  82.5258 223.8367 0017040 141.0059 219.2393 14.91680746508774
SL-8 R/B                
1 11574U 79089B   25299.39142315  .00000379  00000+0  12292-3 0  9993
2 11574  74.0698 339.6146 0015789 190.8033 169.2787 14.42235841416746
SL-14 R/B               
1 11672U 80005B   25299.42279390  .00001130  00000+0  11256-3 0  9995
2 11672  82.5134  74.5639 0014416 249.4526 110.5146 14.90692703456480
SL-8 R/B                
1 12139U 81003B   25299.42293132  .00019002  00000+0  53375-3 0  9998
2 12139  82.9333  53.6638 0285440 283.8584  73.1040 15.04498605294448
SL-3 R/B                
1 12465U 81046B   25299.48804229  .00014338  00000+0  37804-3 0  9994
2 12465  81.2315  90.3950 0020807 125.2796 235.0395 15.38145244417775
METEOR PRIRODA          
1 12585U 81065A   25299.47175537  .00272993  31477-4  67373-3 0  9994
2 12585  97.4609   2.0877 0001086  29.1998 330.9339 15.95996609423227
SL-3 R/B                
1 12904U 81103B   25299.45428278  .00004988  00000+0  23315-3 0  9991
2 12904  81.1625  10.6958 0017878  36.6749 323.5701 15.19458026952835
SL-3 R/B                
1 13068U 82013B   25299.46730294  .00005642  00000+0  25568-3 0  9999
2 13068  81.1737 317.9270 0021473 271.7089  88.1682 15.20482176383943
